{"type": "FeatureCollection", "features": [ {"type": "Feature", "properties": {"norad_id": 31536, "name": "FENGYUN 1C DEB", "group": "fengyun-1c-debris", "lat": -7.578861608386281, "lon": 74.04070735765106, "alt_km": 567.4707826416852, "timestamp": "2025-12-13T18:50:04.714145+00:00", "meta": {"OBJECT_NAME": "FENGYUN 1C DEB", "OBJECT_ID": "1999-025BYB", "EPOCH": "2025-12-09T11:36:52.353792", "MEAN_MOTION": 14.54254862, "ECCENTRICITY": 0.02944487, "INCLINATION": 98.2357, "RA_OF_ASC_NODE": 250.9051, "ARG_OF_PERICENTER": 154.7924, "MEAN_ANOMALY": 206.7981, "EPHEMERIS_TYPE": 0, "CLASSIFICATION_TYPE": "U", "NORAD_CAT_ID": 31536, "ELEMENT_SET_NO": 999, "REV_AT_EPOCH": 96210, "BSTAR": 0.0011928693, "MEAN_MOTION_DOT": 9.011e-05, "MEAN_MOTION_DDOT": 0}, "tle": {"line1": "1 31536U 99025BYB 25343.48393928  .00009011  00000+0  11929-2 0  9990", "line2": "2 31536  98.2357 250.9051 0294448 154.7924 206.7981 14.54254862962101"}}, "geometry": {"type": "Point", "coordinates": [74.04070735765106, -7.578861608386281]}}, {"type": "Feature", "properties": {"norad_id": 31537, "name": "FENGYUN 1C DEB", "group": "fengyun-1c-debris", "lat": 69.86697881703752, "lon": 114.45533731191017, "alt_km": 897.807301345395, "timestamp": "2025-12-13T18:50:04.714155+00:00", "meta": {"OBJECT_NAME": "FENGYUN 1C DEB", "OBJECT_ID": "1999-025BYC", "EPOCH": "2025-12-08T16:46:23.961216", "MEAN_MOTION": 14.20228394, "ECCENTRICITY": 0.03487435, "INCLINATION": 99.2959, "RA_OF_ASC_NODE": 135.6379, "ARG_OF_PERICENTER": 335.9541, "MEAN_ANOMALY": 22.5681, "EPHEMERIS_TYPE": 0, "CLASSIFICATION_TYPE": "U", "NORAD_CAT_ID": 31537, "ELEMENT_SET_NO": 999, "REV_AT_EPOCH": 93224, "BSTAR": 0.0026860598, "MEAN_MOTION_DOT": 0.00010571, "MEAN_MOTION_DDOT": 0}, "tle": {"line1": "1 31537U 99025BYC 25342.69888844  .00010571  00000+0  26861-2 0  9993", "line2": "2 31537  99.2959 135.6379 0348743 335.9541  22.5681 14.20228394932246"}}, "geometry": {"type": "Point", "coordinates": [114.45533731191017, 69.86697881703752]}}, {"type": "Feature", "properties": {"norad_id": 31538, "name": "FENGYUN 1C DEB", "group": "fengyun-1c-debris", "lat": -34.462551054398844, "lon": 30.825383274794095, "alt_km": 565.7812874811725, "timestamp": "2025-12-13T18:50:04.714168+00:00", "meta": {"OBJECT_NAME": "FENGYUN 1C DEB", "OBJECT_ID": "1999-025BYD", "EPOCH": "2025-11-18T21:37:36.814656", "MEAN_MOTION": 14.96885168, "ECCENTRICITY": 0.00235351, "INCLINATION": 98.2479, "RA_OF_ASC_NODE": 190.2519, "ARG_OF_PERICENTER": 356.6213, "MEAN_ANOMALY": 3.4844, "EPHEMERIS_TYPE": 0, "CLASSIFICATION_TYPE": "U", "NORAD_CAT_ID": 31538, "ELEMENT_SET_NO": 999, "REV_AT_EPOCH": 66646, "BSTAR": 0.0047226763, "MEAN_MOTION_DOT": 0.00054817, "MEAN_MOTION_DDOT": 0}, "tle": {"line1": "1 31538U 99025BYD 25322.90112054  .00054817  00000+0  47227-2 0  9999", "line2": "2 31538  98.2479 190.2519 0023535 356.6213   3.4844 14.96885168666469"}}, "geometry": {"type": "Point", "coordinates": [30.825383274794095, -34.462551054398844]}}, {"type": "Feature", "properties": {"norad_id": 31540, "name": "FENGYUN 1C DEB", "group": "fengyun-1c-debris", "lat": -42.867819237577706, "lon": -41.19642778362389, "alt_km": 646.9478134051333, "timestamp": "2025-12-13T18:50:04.714181+00:00", "meta": {"OBJECT_NAME": "FENGYUN 1C DEB", "OBJECT_ID": "1999-025BYF", "EPOCH": "2025-12-09T05:38:36.929760", "MEAN_MOTION": 14.65331731, "ECCENTRICITY": 0.0177015, "INCLINATION": 99.0575, "RA_OF_ASC_NODE": 142.307, "ARG_OF_PERICENTER": 311.8781, "MEAN_ANOMALY": 46.743, "EPHEMERIS_TYPE": 0, "CLASSIFICATION_TYPE": "U", "NORAD_CAT_ID": 31540, "ELEMENT_SET_NO": 999, "REV_AT_EPOCH": 98250, "BSTAR": 0.0011276, "MEAN_MOTION_DOT": 7.611e-05, "MEAN_MOTION_DDOT": 0}, "tle": {"line1": "1 31540U 99025BYF 25343.23514965  .00007611  00000+0  11276-2 0  9993", "line2": "2 31540  99.0575 142.3070 0177015 311.8781  46.7430 14.65331731982509"}}, "geometry": {"type": "Point", "coordinates": [-41.19642778362389, -42.867819237577706]}}, {"type": "Feature", "properties": {"norad_id": 31541, "name": "FENGYUN 1C DEB", "group": "fengyun-1c-debris", "lat": 19.110017507439803, "lon": -46.569470037592836, "alt_km": 651.5817827198098, "timestamp": "2025-12-13T18:50:04.714191+00:00", "meta": {"OBJECT_NAME": "FENGYUN 1C DEB", "OBJECT_ID": "1999-025BYG", "EPOCH": "2025-12-13T05:01:10.621344", "MEAN_MOTION": 14.6884391, "ECCENTRICITY": 0.00783908, "INCLINATION": 98.9791, "RA_OF_ASC_NODE": 129.6583, "ARG_OF_PERICENTER": 238.7945, "MEAN_ANOMALY": 120.5558, "EPHEMERIS_TYPE": 0, "CLASSIFICATION_TYPE": "U", "NORAD_CAT_ID": 31541, "ELEMENT_SET_NO": 999, "REV_AT_EPOCH": 98430, "BSTAR": 0.002432975, "MEAN_MOTION_DOT": 0.0001486, "MEAN_MOTION_DDOT": 0}, "tle": {"line1": "1 31541U 99025BYG 25347.20915071  .00014860  00000+0  24330-2 0  9997", "line2": "2 31541  98.9791 129.6583 0078390 238.7945 120.5558 14.68843910984302"}}, "geometry": {"type": "Point", "coordinates": [-46.569470037592836, 19.110017507439803]}}, {"type": "Feature", "properties": {"norad_id": 31542, "name": "FENGYUN 1C DEB", "group": "fengyun-1c-debris", "lat": -41.958254607699615, "lon": -146.1610472250273, "alt_km": 789.9821544833021, "timestamp": "2025-12-13T18:50:04.714202+00:00", "meta": {"OBJECT_NAME": "FENGYUN 1C DEB", "OBJECT_ID": "1999-025BYH", "EPOCH": "2025-12-12T21:32:19.131360", "MEAN_MOTION": 14.22796932, "ECCENTRICITY": 0.00475223, "INCLINATION": 98.7322, "RA_OF_ASC_NODE": 40.9023, "ARG_OF_PERICENTER": 206.6138, "MEAN_ANOMALY": 153.26, "EPHEMERIS_TYPE": 0, "CLASSIFICATION_TYPE": "U", "NORAD_CAT_ID": 31542, "ELEMENT_SET_NO": 999, "REV_AT_EPOCH": 95942, "BSTAR": 0.0019197015, "MEAN_MOTION_DOT": 4.315e-05, "MEAN_MOTION_DDOT": 0}, "tle": {"line1": "1 31542U 99025BYH 25346.89744365  .00004315  00000+0  19197-2 0  9997", "line2": "2 31542  98.7322  40.9023 0047522 206.6138 153.2600 14.22796932959423"}}, "geometry": {"type": "Point", "coordinates": [-146.1610472250273, -41.958254607699615]}}, {"type": "Feature", "properties": {"norad_id": 31544, "name": "FENGYUN 1C DEB", "group": "fengyun-1c-debris", "lat": -75.89530277101242, "lon": 77.25007679657645, "alt_km": 829.678318077601, "timestamp": "2025-12-13T18:50:04.714214+00:00", "meta": {"OBJECT_NAME": "FENGYUN 1C DEB", "OBJECT_ID": "1999-025BYK", "EPOCH": "2025-12-12T02:27:27.366048", "MEAN_MOTION": 14.14331893, "ECCENTRICITY": 0.00317932, "INCLINATION": 98.8295, "RA_OF_ASC_NODE": 37.374, "ARG_OF_PERICENTER": 270.7963, "MEAN_ANOMALY": 88.9567, "EPHEMERIS_TYPE": 0, "CLASSIFICATION_TYPE": "U", "NORAD_CAT_ID": 31544, "ELEMENT_SET_NO": 999, "REV_AT_EPOCH": 95748, "BSTAR": 0.0010041724, "MEAN_MOTION_DOT": 1.885e-05, "MEAN_MOTION_DDOT": 0}, "tle": {"line1": "1 31544U 99025BYK 25346.10240007  .00001885  00000+0  10042-2 0  9996", "line2": "2 31544  98.8295  37.3740 0031793 270.7963  88.9567 14.14331893957484"}}, "geometry": {"type": "Point", "coordinates": [77.25007679657645, -75.89530277101242]}}, {"type": "Feature", "properties": {"norad_id": 31546, "name": "FENGYUN 1C DEB", "group": "fengyun-1c-debris", "lat": 76.93793992448627, "lon": 18.542928511674827, "alt_km": 778.2375077561173, "timestamp": "2025-12-13T18:50:04.714225+00:00", "meta": {"OBJECT_NAME": "FENGYUN 1C DEB", "OBJECT_ID": "1999-025BYM", "EPOCH": "2025-12-12T23:45:53.915040", "MEAN_MOTION": 14.13132615, "ECCENTRICITY": 0.01463984, "INCLINATION": 98.2436, "RA_OF_ASC_NODE": 56.4817, "ARG_OF_PERICENTER": 136.1839, "MEAN_ANOMALY": 225.1061, "EPHEMERIS_TYPE": 0, "CLASSIFICATION_TYPE": "U", "NORAD_CAT_ID": 31546, "ELEMENT_SET_NO": 999, "REV_AT_EPOCH": 94792, "BSTAR": 0.0028548829, "MEAN_MOTION_DOT": 5.876e-05, "MEAN_MOTION_DDOT": 0}, "tle": {"line1": "1 31546U 99025BYM 25346.99020735  .00005876  00000+0  28549-2 0  9994", "line2": "2 31546  98.2436  56.4817 0146398 136.1839 225.1061 14.13132615947921"}}, "geometry": {"type": "Point", "coordinates": [18.542928511674827, 76.93793992448627]}}, {"type": "Feature", "properties": {"norad_id": 31547, "name": "FENGYUN 1C DEB", "group": "fengyun-1c-debris", "lat": -67.48602560884406, "lon": -171.1244405623176, "alt_km": 783.2676937556025, "timestamp": "2025-12-13T18:50:04.714235+00:00", "meta": {"OBJECT_NAME": "FENGYUN 1C DEB", "OBJECT_ID": "1999-025BYN", "EPOCH": "2025-12-09T09:02:48.494688", "MEAN_MOTION": 14.23103077, "ECCENTRICITY": 0.00537834, "INCLINATION": 99.0872, "RA_OF_ASC_NODE": 27.0415, "ARG_OF_PERICENTER": 262.539, "MEAN_ANOMALY": 96.9674, "EPHEMERIS_TYPE": 0, "CLASSIFICATION_TYPE": "U", "NORAD_CAT_ID": 31547, "ELEMENT_SET_NO": 999, "REV_AT_EPOCH": 63969, "BSTAR": 0.0021137662, "MEAN_MOTION_DOT": 4.797e-05, "MEAN_MOTION_DDOT": 0}, "tle": {"line1": "1 31547U 99025BYN 25343.37695017  .00004797  00000+0  21138-2 0  9993", "line2": "2 31547  99.0872  27.0415 0053783 262.5390  96.9674 14.23103077639691"}}, "geometry": {"type": "Point", "coordinates": [-171.1244405623176, -67.48602560884406]}}, {"type": "Feature", "properties": {"norad_id": 31550, "name": "FENGYUN 1C DEB", "group": "fengyun-1c-debris", "lat": 50.47007461366748, "lon": 177.41747114056352, "alt_km": 857.5905414574463, "timestamp": "2025-12-13T18:50:04.714265+00:00", "meta": {"OBJECT_NAME": "FENGYUN 1C DEB", "OBJECT_ID": "1999-025BYR", "EPOCH": "2025-12-08T18:10:11.266176", "MEAN_MOTION": 14.40173204, "ECCENTRICITY": 0.01902168, "INCLINATION": 98.3115, "RA_OF_ASC_NODE": 342.3294, "ARG_OF_PERICENTER": 284.9063, "MEAN_ANOMALY": 73.1133, "EPHEMERIS_TYPE": 0, "CLASSIFICATION_TYPE": "U", "NORAD_CAT_ID": 31550, "ELEMENT_SET_NO": 999, "REV_AT_EPOCH": 65397, "BSTAR": 0.0013773158, "MEAN_MOTION_DOT": 5.342e-05, "MEAN_MOTION_DDOT": 0}, "tle": {"line1": "1 31550U 99025BYR 25342.75707484  .00005342  00000+0  13773-2 0  9993", "line2": "2 31550  98.3115 342.3294 0190216 284.9063  73.1133 14.40173204653975"}}, "geometry": {"type": "Point", "coordinates": [177.41747114056352, 50.47007461366748]}}]}